HAWK-6B                 
1 55324U 23011A   26167.92078583  .00004009  00000+0  17537-3 0  9998
2 55324  40.4997 353.6259 0002407 359.6501   0.4307 15.22931782187807
HAWK-6C                 
1 55326U 23011C   26167.92012169  .00003701  00000+0  16255-3 0  9992
2 55326  40.4991 350.4679 0003322 348.3905  11.6827 15.22928633187817
HAWK-6A                 
1 55327U 23011D   26167.92017618  .00004062  00000+0  17759-3 0  9998
2 55327  40.4996 352.0926 0003039 345.3753  14.6967 15.22929887187819
HAWK-7A                 
1 56191U 23054P   26167.65176773  .00004734  00000+0  17939-3 0  9999
2 56191  97.2703  55.0028 0004378  58.7308 301.4359 15.27356857176946
HAWK-7B                 
1 56193U 23054R   26167.91374299  .00004570  00000+0  17330-3 0  9996
2 56193  97.2726  53.5220 0003760  69.4336 290.7307 15.27356211176985
HAWK-7C                 
1 56200U 23054Y   26167.91363213  .00004526  00000+0  17164-3 0  9995
2 56200  97.2704  54.2908 0003724  61.0850 299.0763 15.27357871176981
